STARLINK-32359          
1 61957U 24209U   26068.47922661  .00014063  00000+0  48615-3 0  9994
2 61957  53.1574 143.4521 0001179 110.0444 250.0684 15.30190850 74881
TEVEL2-2                
1 63219U 25052K   26068.64848259  .00020339  00000+0  69428-3 0  9991
2 63219  97.3987 324.7700 0004693 105.7930 254.3828 15.30343745 54855
